[{"OBJECT_NAME":"STARLINK-3335","OBJECT_ID":"2022-001D","EPOCH":"2026-03-09T13:10:41.253312","MEAN_MOTION":15.08834941,"ECCENTRICITY":0.00011913,"INCLINATION":53.218,"RA_OF_ASC_NODE":159.7568,"ARG_OF_PERICENTER":95.404,"MEAN_ANOMALY":264.7088,"EPHEMERIS_TYPE":0,"CLASSIFICATION_TYPE":"U","NORAD_CAT_ID":50806,"ELEMENT_SET_NO":999,"REV_AT_EPOCH":23052,"BSTAR":8.8792374e-5,"MEAN_MOTION_DOT":1.125e-5,"MEAN_MOTION_DDOT":0},{"OBJECT_NAME":"LANDSAT 5","OBJECT_ID":"1984-021A","EPOCH":"2026-03-09T17:06:39.595392","MEAN_MOTION":15.03956175,"ECCENTRICITY":0.00705197,"INCLINATION":98.0698,"RA_OF_ASC_NODE":343.5816,"ARG_OF_PERICENTER":90.3041,"MEAN_ANOMALY":270.6265,"EPHEMERIS_TYPE":0,"CLASSIFICATION_TYPE":"U","NORAD_CAT_ID":14780,"ELEMENT_SET_NO":999,"REV_AT_EPOCH":77643,"BSTAR":0.00029889959,"MEAN_MOTION_DOT":4.286e-5,"MEAN_MOTION_DDOT":0}]
